[{"OBJECT_NAME":"OBJECT A","OBJECT_ID":"2023-189A","EPOCH":"2026-03-09T22:59:06.381600","MEAN_MOTION":15.32403275,"ECCENTRICITY":0.00094831,"INCLINATION":97.4458,"RA_OF_ASC_NODE":86.5997,"ARG_OF_PERICENTER":249.5377,"MEAN_ANOMALY":110.4847,"EPHEMERIS_TYPE":0,"CLASSIFICATION_TYPE":"U","NORAD_CAT_ID":58502,"ELEMENT_SET_NO":999,"REV_AT_EPOCH":12601,"BSTAR":0.00019874471,"MEAN_MOTION_DOT":6.146e-5,"MEAN_MOTION_DDOT":0},{"OBJECT_NAME":"STARLINK-31697","OBJECT_ID":"2024-076V","EPOCH":"2026-03-09T05:25:45.128064","MEAN_MOTION":15.28599043,"ECCENTRICITY":0.00013526,"INCLINATION":43.0011,"RA_OF_ASC_NODE":11.4517,"ARG_OF_PERICENTER":268.5323,"MEAN_ANOMALY":91.5374,"EPHEMERIS_TYPE":0,"CLASSIFICATION_TYPE":"U","NORAD_CAT_ID":59583,"ELEMENT_SET_NO":999,"REV_AT_EPOCH":10634,"BSTAR":3.3673464e-5,"MEAN_MOTION_DOT":6.91e-6,"MEAN_MOTION_DDOT":0}]
